NORAD_CAT_ID,OBJECT_NAME,OBJECT_TYPE,EPOCH,MEAN_MOTION,ECCENTRICITY,INCLINATION,RA_OF_ASC_NODE,ARG_OF_PERICENTER,MEAN_ANOMALY,BSTAR,MEAN_MOTION_DOT,MEAN_MOTION_DDOT,TLE_LINE0,TLE_LINE1,TLE_LINE2,SEMIMAJOR_AXIS,PERIOD,APOGEE,PERIGEE,DECAYED
50207.0,STARLINK-3262,PAYLOAD,2022-10-31 08:40:48,15.08827601,0.0002672,53.2164,339.8466,27.9938,332.1197,-2.1654e-05,-6.33e-06,0.0,0 STARLINK-3262,1 50207U 21125BD  22304.36167796 -.00000633  00000-0 -21654-4 0  9997,2 50207  53.2164 339.8466 0002672  27.9938 332.1197 15.08827601 49749,6917.918000000002,95.438,541.632,537.935,0.0
50207.0,STARLINK-3262,PAYLOAD,2022-10-31 19:48:30,15.08834936,0.0002556,53.2164,337.7645,28.7468,331.3665,6.4787e-05,7.43e-06,0.0,0 STARLINK-3262,1 50207U 21125BD  22304.82535387  .00000743  00000-0  64787-4 0  9997,2 50207  53.2164 337.7645 0002556  28.7468 331.3665 15.08834936 49811,6917.896,95.438,541.529,537.993,0.0
50207.0,STARLINK-3262,PAYLOAD,2022-11-01 10:06:58,15.08839689,0.0002739,53.2166,335.0892,26.3404,333.7727,0.00017369,2.477e-05,0.0,0 STARLINK-3262,1 50207U 21125BD  22305.42151171  .00002477  00000-0  17369-3 0  9998,2 50207  53.2166 335.0892 0002739  26.3404 333.7727 15.08839689 49900,6917.880999999999,95.438,541.641,537.852,0.0
50207.0,STARLINK-3262,PAYLOAD,2022-11-02 11:33:09,15.08836118,0.0002946,53.2154,330.3321,23.5466,336.566,0.00012692,1.732e-05,0.0,0 STARLINK-3262,1 50207U 21125BD  22306.48135786  .00001732  00000-0  12692-3 0  9996,2 50207  53.2154 330.3321 0002946  23.5466 336.5660 15.08836118 50069,6917.892,95.438,541.795,537.719,0.0
50207.0,STARLINK-3262,PAYLOAD,2022-11-03 08:13:09,15.08844776,0.0003003,53.2161,326.4667,23.8438,336.2692,4.3319e-05,4.01e-06,0.0,0 STARLINK-3262,1 50207U 21125BD  22307.34247187  .00000401  00000-0  43319-4 0  9994,2 50207  53.2161 326.4667 0003003  23.8438 336.2692 15.08844776 50198,6917.866,95.437,541.808,537.653,0.0
50207.0,STARLINK-3262,PAYLOAD,2022-11-04 00:06:59,15.08869524,0.0003003999999999,53.2162,323.4907,22.8699,337.2426,-7.9052e-05,-1.548e-05,0.0,0 STARLINK-3262,1 50207U 21125BD  22308.00485874 -.00001548  00000-0 -79052-4 0  9993,2 50207  53.2162 323.4907 0003004  22.8699 337.2426 15.08869524 50297,6917.79,95.436,541.7330000000002,537.577,0.0
50207.0,STARLINK-3262,PAYLOAD,2022-11-04 08:03:55,15.08865681,0.0003064,53.2163,322.0034,23.0162,337.0967,-8.963700000000001e-05,-1.716e-05,0.0,0 STARLINK-3262,1 50207U 21125BD  22308.33605700 -.00001716  00000-0 -89637-4 0  9998,2 50207  53.2163 322.0034 0003064  23.0162 337.0967 15.08865681 50342,6917.802,95.436,541.7869999999998,537.547,0.0
50207.0,STARLINK-3262,PAYLOAD,2022-11-04 17:36:15,15.08837377,0.0003025,53.2151,320.2201,23.71,336.4031,1.174e-05,-1.02e-06,0.0,0 STARLINK-3262,1 50207U 21125BD  22308.73350842 -.00000102  00000-0  11740-4 0  9993,2 50207  53.2151 320.2201 0003025  23.7100 336.4031 15.08837377 50404,6917.888000000001,95.438,541.846,537.661,0.0
50207.0,STARLINK-3262,PAYLOAD,2022-11-05 06:19:19,15.08839101,0.0002742,53.2146,317.8393,21.2701,338.8405,-4.5911e-05,-1.019e-05,0.0,0 STARLINK-3262,1 50207U 21125BD  22309.26342512 -.00001019  00000-0 -45911-4 0  9993,2 50207  53.2146 317.8393 0002742  21.2701 338.8405 15.08839101 50483,6917.8830000000025,95.438,541.645,537.851,0.0
50207.0,STARLINK-3262,PAYLOAD,2022-11-05 17:27:02,15.08822385,0.0003006,53.2139,315.7583,20.9495,339.162,-0.00030051,-5.066e-05,0.0,0 STARLINK-3262,1 50207U 21125BD  22309.72711709 -.00005066  00000-0 -30051-3 0  9996,2 50207  53.2139 315.7583 0003006  20.9495 339.1620 15.08822385 50550,6917.934,95.439,541.879,537.72,0.0
50207.0,STARLINK-3262,PAYLOAD,2022-11-06 07:45:31,15.08830003,0.0003062,53.2154,313.0815,23.4749,336.6383,-4.155e-05,-9.5e-06,0.0,0 STARLINK-3262,1 50207U 21125BD  22310.32328472 -.00000950  00000-0 -41550-4 0  9999,2 50207  53.2154 313.0815 0003062  23.4749 336.6383 15.08830003 50642,6917.911,95.438,541.894,537.658,0.0
50207.0,STARLINK-3262,PAYLOAD,2022-11-06 17:17:50,15.08835473,0.0002871,53.2156,311.2997,27.2703,332.8439,0.00010959,1.456e-05,0.0,0 STARLINK-3262,1 50207U 21125BD  22310.72072048  .00001456  00000-0  10959-3 0  9996,2 50207  53.2156 311.2997 0002871  27.2703 332.8439 15.08835473 50707,6917.894,95.438,541.745,537.773,0.0
50207.0,STARLINK-3262,PAYLOAD,2022-11-07 17:08:37,15.08842664,0.0002927,53.2147,306.8375,24.0202,336.0926,0.00039697,6.036e-05,0.0,0 STARLINK-3262,1 50207U 21125BD  22311.71432296  .00006036  00000-0  39697-3 0  9990,2 50207  53.2147 306.8375 0002927  24.0202 336.0926 15.08842664 50851,6917.871999999999,95.437,541.762,537.712,0.0
50207.0,STARLINK-3262,PAYLOAD,2022-11-08 05:51:42,15.0885531,0.0002905,53.2148,304.4585,29.3834,330.7321,0.0003958,6.019e-05,0.0,0 STARLINK-3262,1 50207U 21125BD  22312.24423685  .00006019  00000-0  39580-3 0  9993,2 50207  53.2148 304.4585 0002905  29.3834 330.7321 15.08855310 50935,6917.834,95.437,541.7080000000002,537.689,0.0
50207.0,STARLINK-3262,PAYLOAD,2022-11-08 09:02:28,15.08856917,0.0002841,53.2146,303.8637,29.0864,331.0286,0.00038771,5.89e-05,0.0,0 STARLINK-3262,1 50207U 21125BD  22312.37671554  .00005890  00000-0  38771-3 0  9994,2 50207  53.2146 303.8637 0002841  29.0864 331.0286 15.08856917 50953,6917.829000000002,95.436,541.659,537.7280000000002,0.0
50207.0,STARLINK-3262,PAYLOAD,2022-11-08 16:59:23,15.08855164,0.0002847,53.2146,302.3763,30.2204,329.8952,0.0003057,4.582e-05,0.0,0 STARLINK-3262,1 50207U 21125BD  22312.70791364  .00004582  00000-0  30570-3 0  9999,2 50207  53.2146 302.3763 0002847  30.2204 329.8952 15.08855164 51000,6917.834,95.437,541.669,537.73,0.0
50207.0,STARLINK-3262,PAYLOAD,2022-11-09 02:31:42,15.08845785,0.0002686,53.2153,300.5925,28.8717,331.2423,3.727800000000001e-05,3.05e-06,0.0,0 STARLINK-3262,1 50207U 21125BD  22313.10535450  .00000305  00000-0  37278-4 0  9998,2 50207  53.2153 300.5925 0002686  28.8717 331.2423 15.08845785 51065,6917.863,95.437,541.586,537.87,0.0
50207.0,STARLINK-3262,PAYLOAD,2022-11-09 08:53:14,15.08852292,0.0002768,53.216,299.4035,26.5997,333.5137,0.00010213,1.338e-05,0.0,0 STARLINK-3262,1 50207U 21125BD  22313.37030844  .00001338  00000-0  10213-3 0  9990,2 50207  53.2160 299.4035 0002768  26.5997 333.5137 15.08852292 51100,6917.843000000003,95.437,541.623,537.793,0.0
50207.0,STARLINK-3262,PAYLOAD,2022-11-09 16:50:10,15.08853968,0.0002771,53.215,297.9166,27.4785,332.6353,0.0001553,2.185e-05,0.0,0 STARLINK-3262,1 50207U 21125BD  22313.70150661  .00002185  00000-0  15530-3 0  9995,2 50207  53.2150 297.9166 0002771  27.4785 332.6353 15.08853968 51152,6917.8380000000025,95.437,541.62,537.786,0.0
50207.0,STARLINK-3262,PAYLOAD,2022-11-10 05:33:16,15.08833853,0.0002744,53.2151,295.5377,27.5752,332.5385,-0.00012137,-2.219e-05,0.0,0 STARLINK-3262,1 50207U 21125BD  22314.23143708 -.00002219  00000-0 -12137-3 0  9998,2 50207  53.2151 295.5377 0002744  27.5752 332.5385 15.08833853 51230,6917.899,95.438,541.6619999999998,537.866,0.0
50207.0,STARLINK-3262,PAYLOAD,2022-11-10 08:44:02,15.08833811,0.0002824,53.2156,294.9433,24.8481,335.2646,-8.895600000000001e-05,-1.704e-05,0.0,0 STARLINK-3262,1 50207U 21125BD  22314.36392242 -.00001704  00000-0 -88956-4 0  9992,2 50207  53.2156 294.9433 0002824  24.8481 335.2646 15.08833811 51255,6917.899,95.438,541.7180000000002,537.811,0.0
50207.0,STARLINK-3262,PAYLOAD,2022-11-11 05:24:04,15.08823519,0.0002809,53.2156,291.0782,24.7212,335.3914,-1.9311e-05,-5.96e-06,0.0,0 STARLINK-3262,1 50207U 21125BD  22315.22505020 -.00000596  00000-0 -19311-4 0  9995,2 50207  53.2156 291.0782 0002809  24.7212 335.3914 15.08823519 51381,6917.931,95.439,541.739,537.8530000000002,0.0
50207.0,STARLINK-3262,PAYLOAD,2022-11-11 06:59:27,15.08826235,0.0002721,53.2155,290.7803,27.4555,332.658,2.2448e-06,-2.53e-06,0.0,0 STARLINK-3262,1 50207U 21125BD  22315.29128815 -.00000253  00000-0  22448-5 0  9990,2 50207  53.2155 290.7803 0002721  27.4555 332.6580 15.08826235 51391,6917.922,95.438,541.67,537.905,0.0
50207.0,STARLINK-3262,PAYLOAD,2022-11-12 05:14:50,15.08838617,0.0002781,53.216,286.6167,24.8511,335.2615,0.00016419,2.326e-05,0.0,0 STARLINK-3262,1 50207U 21125BD  22316.21863748  .00002326  00000-0  16419-3 0  9995,2 50207  53.2160 286.6167 0002781  24.8511 335.2615 15.08838617 51534,6917.885,95.438,541.673,537.826,0.0
50207.0,STARLINK-3262,PAYLOAD,2022-11-13 08:16:24,15.08830821,0.0002775,53.2159,281.5613,26.0399,334.0732,7.7328e-05,9.42e-06,0.0,0 STARLINK-3262,1 50207U 21125BD  22317.34472614  .00000942  00000-0  77328-4 0  9997,2 50207  53.2159 281.5613 0002775  26.0399 334.0732 15.08830821 51708,6917.908,95.438,541.693,537.854,0.0
50207.0,STARLINK-3262,PAYLOAD,2022-11-14 04:56:25,15.08834113,0.0002826,53.2162,277.6959,28.5901,331.5245,-0.00014293,-2.562e-05,0.0,0 STARLINK-3262,1 50207U 21125BD  22318.20585290 -.00002562  00000-0 -14293-3 0  9991,2 50207  53.2162 277.6959 0002826  28.5901 331.5245 15.08834113 51837,6917.898,95.438,541.7180000000002,537.808,0.0
50207.0,STARLINK-3262,PAYLOAD,2022-11-14 20:50:17,15.08824417,0.000308,53.2159,274.7211,27.9684,332.1473,3.8483e-05,3.24e-06,0.0,0 STARLINK-3262,1 50207U 21125BD  22318.86825459  .00000324  00000-0  38483-4 0  9997,2 50207  53.2159 274.7211 0003080  27.9684 332.1473 15.08824417 51933,6917.928000000001,95.439,541.924,537.6619999999998,0.0
50207.0,STARLINK-3262,PAYLOAD,2022-11-15 06:22:35,15.08836905,0.0002955,53.2156,272.9372,29.798,330.3180000000001,0.00013115,1.799e-05,0.0,0 STARLINK-3262,1 50207U 21125BD  22319.26568588  .00001799  00000-0  13115-3 0  9990,2 50207  53.2156 272.9372 0002955  29.7980 330.3180 15.08836905 51993,6917.89,95.438,541.799,537.711,0.0
50207.0,STARLINK-3262,PAYLOAD,2022-11-15 14:19:31,15.08835115,0.0002979,53.2155,271.4505,30.2502,329.8661,0.00010598,1.398e-05,0.0,0 STARLINK-3262,1 50207U 21125BD  22319.59688944  .00001398  00000-0  10598-3 0  9992,2 50207  53.2155 271.4505 0002979  30.2502 329.8661 15.08835115 52043,6917.895,95.438,541.821,537.6990000000002,0.0
